COMMENT,ORIGINATOR,NORAD_CAT_ID,OBJECT_NAME,OBJECT_TYPE,CLASSIFICATION_TYPE,INTLDES,EPOCH,EPOCH_MICROSECONDS,MEAN_MOTION,ECCENTRICITY,INCLINATION,RA_OF_ASC_NODE,ARG_OF_PERICENTER,MEAN_ANOMALY,EPHEMERIS_TYPE,ELEMENT_SET_NO,REV_AT_EPOCH,BSTAR,MEAN_MOTION_DOT,MEAN_MOTION_DDOT,FILE,TLE_LINE0,TLE_LINE1,TLE_LINE2,OBJECT_ID,OBJECT_NUMBER,SEMIMAJOR_AXIS,PERIOD,APOGEE,PERIGEE
GENERATED VIA SPACETRACK.ORG API,18 SPCS,41616,FLOCK 2P 5,PAYLOAD,U,16040T,11/8/2018 20:26,580864,15.24797498,0.0011971,97.4026,16.1492,93.4659,266.7948,0,999,13226,4.90E-05,1.14E-05,0,2358046,0 FLOCK 2P 5,1 41616U 16040T   18312.85173126 +.00001144 +00000-0 +48960-4 0  9998,2 41616 097.4026 016.1492 0011971 093.4659 266.7948 15.24797498132268,2016-040T,41616,6869.53,94.438,499.619,483.172
GENERATED VIA SPACETRACK.ORG API,18 SPCS,41616,FLOCK 2P 5,PAYLOAD,U,16040T,11/9/2018 20:03,951872,15.24799615,0.0011959,97.4024,17.1221,90.4798,269.781,0,999,13241,4.50E-05,1.05E-05,0,2358155,0 FLOCK 2P 5,1 41616U 16040T   18313.83609898  .00001046  00000-0  45017-4 0  9998,2 41616  97.4024  17.1221 0011959  90.4798 269.7810 15.24799615132415,2016-040T,41616,6869.524,94.438,499.604,483.173
GENERATED VIA SPACETRACK.ORG API,18 SPCS,41616,FLOCK 2P 5,PAYLOAD,U,16040T,11/9/2018 21:38,874112,15.24800536,0.0011957,97.4024,17.1869,90.265,269.9957,0,999,13242,4.98E-05,1.17E-05,0,2358186,0 FLOCK 2P 5,1 41616U 16040T   18313.90172308 +.00001166 +00000-0 +49809-4 0  9993,2 41616 097.4024 017.1869 0011957 090.2650 269.9957 15.24800536132426,2016-040T,41616,6869.521,94.438,499.6,483.172
GENERATED VIA SPACETRACK.ORG API,18 SPCS,41616,FLOCK 2P 5,PAYLOAD,U,16040T,11/10/2018 19:41,118976,15.24803056,0.0011952,97.4022,18.095,87.4296,272.831,0,999,13256,4.98E-05,1.17E-05,0,2358506,0 FLOCK 2P 5,1 41616U 16040T   18314.82046434 +.00001165 +00000-0 +49780-4 0  9992,2 41616 097.4022 018.0950 0011952 087.4296 272.8310 15.24803056132565,2016-040T,41616,6869.513,94.438,499.589,483.168
GENERATED VIA SPACETRACK.ORG API,18 SPCS,41616,FLOCK 2P 5,PAYLOAD,U,16040T,11/11/2018 11:26,472704,15.24805096,0.0011949,97.4022,18.7435,85.4541,274.8061,0,999,13266,5.10E-05,1.20E-05,0,2358834,0 FLOCK 2P 5,1 41616U 16040T   18315.47670686  .00001195  00000-0  50981-4 0  9994,2 41616  97.4022  18.7435 0011949  85.4541 274.8061 15.24805096132669,2016-040T,41616,6869.507,94.438,499.581,483.164
GENERATED VIA SPACETRACK.ORG API,18 SPCS,41616,FLOCK 2P 5,PAYLOAD,U,16040T,11/11/2018 20:53,56256,15.24806387,0.0011945,97.4021,19.1327,84.2652,275.9947,0,999,13272,5.25E-05,1.23E-05,0,2359011,0 FLOCK 2P 5,1 41616U 16040T   18315.87045204 +.00001233 +00000-0 +52517-4 0  9990,2 41616 097.4021 019.1327 0011945 084.2652 275.9947 15.24806387132725,2016-040T,41616,6869.503,94.438,499.574,483.163
GENERATED VIA SPACETRACK.ORG API,18 SPCS,41616,FLOCK 2P 5,PAYLOAD,U,16040T,11/12/2018 20:30,947744,15.2480878,0.0011917,97.4019,20.1055,81.282,278.9767,0,999,13287,5.12E-05,1.20E-05,0,2359460,0 FLOCK 2P 5,1 41616U 16040T   18316.85481421  .00001200  00000-0  51187-4 0  9990,2 41616  97.4019  20.1055 0011917  81.2820 278.9767 15.24808780132873,2016-040T,41616,6869.496,94.438,499.548,483.175
GENERATED VIA SPACETRACK.ORG API,18 SPCS,41616,FLOCK 2P 5,PAYLOAD,U,16040T,11/12/2018 22:05,858752,15.24809085,0.0011914,97.4019,20.1703,81.0972,279.1614,0,999,13288,5.20E-05,1.22E-05,0,2359495,0 FLOCK 2P 5,1 41616U 16040T   18316.92043818 +.00001219 +00000-0 +51967-4 0  9998,2 41616 097.4019 020.1703 0011914 081.0972 279.1614 15.24809085132880,2016-040T,41616,6869.495,94.438,499.545,483.176
GENERATED VIA SPACETRACK.ORG API,18 SPCS,41616,FLOCK 2P 5,PAYLOAD,U,16040T,11/13/2018 10:41,209024,15.24810093,0.0011894,97.4019,20.6892,79.5154,280.7424,0,999,13296,4.94E-05,1.16E-05,0,2360002,0 FLOCK 2P 5,1 41616U 16040T   18317.44543066 +.00001156 +00000-0 +49420-4 0  9997,2 41616 097.4019 020.6892 0011894 079.5154 280.7424 15.24810093132962,2016-040T,41616,6869.492,94.437,499.528,483.187
GENERATED VIA SPACETRACK.ORG API,18 SPCS,41616,FLOCK 2P 5,PAYLOAD,U,16040T,11/13/2018 21:42,601632,15.24811066,0.001188,97.4018,21.1432,78.0781,282.1787,0,999,13303,4.79E-05,1.12E-05,0,2360338,0 FLOCK 2P 5,1 41616U 16040T   18317.90479863 +.00001118 +00000-0 +47877-4 0  9993,2 41616 097.4018 021.1432 0011880 078.0781 282.1787 15.24811066133030,2016-040T,41616,6869.489,94.437,499.515,483.193
GENERATED VIA SPACETRACK.ORG API,18 SPCS,41616,FLOCK 2P 5,PAYLOAD,U,16040T,11/14/2018 4:00,228384,15.24811852,0.0011868,97.4018,21.4026,77.2716,282.9848,0,999,13307,4.83E-05,1.13E-05,0,2360153,0 FLOCK 2P 5,1 41616U 16040T   18318.16729431  .00001128  00000-0  48283-4 0  9994,2 41616  97.4018  21.4026 0011868  77.2716 282.9848 15.24811852133070,2016-040T,41616,6869.487,94.437,499.505,483.199
GENERATED VIA SPACETRACK.ORG API,18 SPCS,41616,FLOCK 2P 5,PAYLOAD,U,16040T,11/14/2018 19:45,230464,15.24814131,0.0011849,97.4017,22.0511,75.1838,285.0712,0,999,13317,5.17E-05,1.21E-05,0,2361879,0 FLOCK 2P 5,1 41616U 16040T   18318.82353276 +.00001213 +00000-0 +51693-4 0  9991,2 41616 097.4017 022.0511 0011849 075.1838 285.0712 15.24814131133174,2016-040T,41616,6869.48,94.437,499.485,483.205
GENERATED VIA SPACETRACK.ORG API,18 SPCS,41616,FLOCK 2P 5,PAYLOAD,U,16040T,11/15/2018 11:30,190208,15.24816506,0.0011831,97.4017,22.6997,73.2236,287.0299,0,999,13327,5.66E-05,1.34E-05,0,2362125,0 FLOCK 2P 5,1 41616U 16040T   18319.47977072  .00001335  00000-0  56603-4 0  9990,2 41616  97.4017  22.6997 0011831  73.2236 287.0299 15.24816506133271,2016-040T,41616,6869.473,94.437,499.465,483.211
GENERATED VIA SPACETRACK.ORG API,18 SPCS,41616,FLOCK 2P 5,PAYLOAD,U,16040T,11/15/2018 20:57,519744,15.24817659,0.0011816,97.4017,23.0888,71.9956,288.2568,0,999,13333,5.71E-05,1.35E-05,0,2362882,0 FLOCK 2P 5,1 41616U 16040T   18319.87351296 +.00001347 +00000-0 +57084-4 0  9995,2 41616 097.4017 023.0888 0011816 071.9956 288.2568 15.24817659133331,2016-040T,41616,6869.47,94.437,499.451,483.218
GENERATED VIA SPACETRACK.ORG API,18 SPCS,41616,FLOCK 2P 5,PAYLOAD,U,16040T,11/16/2018 11:08,518368,15.24819085,0.001178,97.4016,23.6724,70.1972,290.0535,0,999,13342,5.68E-05,1.34E-05,0,2362916,0 FLOCK 2P 5,1 41616U 16040T   18320.46412637 +.00001340 +00000-0 +56813-4 0  9991,2 41616 097.4016 023.6724 0011780 070.1972 290.0535 15.24819085133424,2016-040T,41616,6869.465,94.437,499.422,483.238
GENERATED VIA SPACETRACK.ORG API,18 SPCS,41616,FLOCK 2P 5,PAYLOAD,U,16040T,11/16/2018 20:35,817664,15.24819931,0.0011758,97.4016,24.0616,68.9522,291.2972,0,999,13348,5.57E-05,1.31E-05,0,2362994,0 FLOCK 2P 5,1 41616U 16040T   18320.85786826  .00001313  00000-0  55719-4 0  9992,2 41616  97.4016  24.0616 0011758  68.9522 291.2972 15.24819931133484,2016-040T,41616,6869.463,94.437,499.405,483.251
GENERATED VIA SPACETRACK.ORG API,18 SPCS,41616,FLOCK 2P 5,PAYLOAD,U,16040T,11/16/2018 22:09,699296,15.24819999,0.0011754,97.4016,24.1264,68.7537,291.4955,0,999,13349,5.50E-05,1.30E-05,0,2363362,0 FLOCK 2P 5,1 41616U 16040T   18320.92349189 +.00001296 +00000-0 +55045-4 0  9999,2 41616 097.4016 024.1264 0011754 068.7537 291.4955 15.24819999133492,2016-040T,41616,6869.462,94.437,499.402,483.253
GENERATED VIA SPACETRACK.ORG API,18 SPCS,41616,FLOCK 2P 5,PAYLOAD,U,16040T,11/17/2018 4:27,209408,15.24820714,0.0011737,97.4015,24.3858,67.9455,292.3028,0,999,13353,5.51E-05,1.30E-05,0,2363503,0 FLOCK 2P 5,1 41616U 16040T   18321.18598622 +.00001298 +00000-0 +55117-4 0  9998,2 41616 097.4015 024.3858 0011737 067.9455 292.3028 15.24820714133536,2016-040T,41616,6869.46,94.437,499.388,483.263
GENERATED VIA SPACETRACK.ORG API,18 SPCS,41616,FLOCK 2P 5,PAYLOAD,U,16040T,11/17/2018 21:47,877984,15.24822062,0.00117,97.4015,25.0992,65.7529,294.493,0,999,13364,5.32E-05,1.25E-05,0,2363840,0 FLOCK 2P 5,1 41616U 16040T   18321.90784581 +.00001251 +00000-0 +53216-4 0  9996,2 41616 097.4015 025.0992 0011700 065.7529 294.4930 15.24822062133646,2016-040T,41616,6869.456,94.437,499.359,483.284
GENERATED VIA SPACETRACK.ORG API,18 SPCS,41616,FLOCK 2P 5,PAYLOAD,U,16040T,11/18/2018 4:05,358720,15.24822725,0.0011684,97.4014,25.3585,64.9098,295.3351,0,999,13368,5.32E-05,1.25E-05,0,2363657,0 FLOCK 2P 5,1 41616U 16040T   18322.17033980  .00001250  00000-0  53191-4 0  9997,2 41616  97.4014  25.3585 0011684  64.9098 295.3351 15.24822725133686,2016-040T,41616,6869.454,94.437,499.346,483.293
GENERATED VIA SPACETRACK.ORG API,18 SPCS,41616,FLOCK 2P 5,PAYLOAD,U,16040T,11/18/2018 21:24,931392,15.24824246,0.0011652,97.4014,26.0719,62.7058,297.5365,0,999,13379,5.31E-05,1.25E-05,0,2363842,0 FLOCK 2P 5,1 41616U 16040T   18322.89219828 +.00001249 +00000-0 +53146-4 0  9991,2 41616 097.4014 026.0719 0011652 062.7058 297.5365 15.24824246133791,2016-040T,41616,6869.45,94.437,499.319,483.31
GENERATED VIA SPACETRACK.ORG API,18 SPCS,41616,FLOCK 2P 5,PAYLOAD,U,16040T,11/19/2018 11:35,739072,15.24825349,0.0011614,97.4014,26.6556,60.8382,299.4016,0,999,13388,5.29E-05,1.24E-05,0,2364128,0 FLOCK 2P 5,1 41616U 16040T   18323.48280948  .00001243  00000-0  52885-4 0  9991,2 41616  97.4014  26.6556 0011614  60.8382 299.4016 15.24825349133882,2016-040T,41616,6869.446,94.437,499.29,483.333
GENERATED VIA SPACETRACK.ORG API,18 SPCS,41616,FLOCK 2P 5,PAYLOAD,U,16040T,11/19/2018 21:02,904448,15.24826057,0.0011591,97.4013,27.0447,59.6535,300.5847,0,999,13394,5.22E-05,1.23E-05,0,2364337,0 FLOCK 2P 5,1 41616U 16040T   18323.87654982 +.00001227 +00000-0 +52242-4 0  9996,2 41616 097.4013 027.0447 0011591 059.6535 300.5847 15.24826057133945,2016-040T,41616,6869.444,94.437,499.272,483.347
GENERATED VIA SPACETRACK.ORG API,18 SPCS,41616,FLOCK 2P 5,PAYLOAD,U,16040T,11/20/2018 15:56,197184,15.24827212,0.0011536,97.4012,27.8229,57.236,302.9988,0,999,13406,4.92E-05,1.15E-05,0,2364817,0 FLOCK 2P 5,1 41616U 16040T   18324.66403006  .00001152  00000-0  49232-4 0  9995,2 41616  97.4012  27.8229 0011536  57.2360 302.9988 15.24827212134069,2016-040T,41616,6869.441,94.436,499.23,483.381
